{
"type": "FeatureCollection",
"name": "greyback_assessment_aoi",
"crs": { "type": "name", "properties": { "name": "urn:ogc:def:crs:OGC:1.3:CRS84" } },
"features": [
{ "type": "Feature", "properties": { "WATERSHED_FEATURE_ID": 12515, "WATERSHED_GROUP_ID": 161, "WATERSHED_TYPE": "C", "WATERSHED_NAME": "Penticton Creek", "FWA_WATERSHED_CODE": "300-432687-637835-000000-000000-000000-000000-000000-000000-000000-000000-000000-000000-000000-000000-000000-000000-000000-000000-000000-000000", "WATERSHED_GROUP_CODE": "OKAN", "AREA_HA": 8289.7698048045404 }, "geometry": { "type": "Polygon", "coordinates": [ [ [ -119.37536622, 49.67737129 ], [ -119.37546849, 49.67751014 ], [ -119.37560374, 49.6776303 ], [ -119.3757573, 49.67774709 ], [ -119.37592845, 49.67784553 ], [ -119.37611317, 49.6779377 ], [ -119.37626462, 49.67804254 ], [ -119.37638586, 49.67815999 ], [ -119.37647693, 49.67829006 ], [ -119.37656747, 49.67844113 ], [ -119.37724494, 49.6786881 ], [ -119.3770607, 49.67888978 ], [ -119.37818638, 49.67900959 ], [ -119.37926894, 49.67912928 ], [ -119.38031253, 49.67914481 ], [ -119.38123485, 49.67891693 ], [ -119.38193895, 49.67847864 ], [ -119.38242064, 49.67793397 ], [ -119.38345492, 49.67794866 ], [ -119.38449843, 49.67790019 ], [ -119.3855207, 49.67811001 ], [ -119.38655101, 49.67820072 ], [ -119.38758202, 49.67821145 ], [ -119.38863599, 49.67803077 ], [ -119.38896132, 49.67788012 ], [ -119.3894759, 49.67825932 ], [ -119.39002646, 49.6785868 ], [ -119.39084087, 49.67879787 ], [ -119.39177076, 49.67900755 ], [ -119.39281611, 49.67921584 ], [ -119.393846, 49.67948541 ], [ -119.39486293, 49.67977322 ], [ -119.39585523, 49.67993561 ], [ -119.39684139, 49.68006712 ], [ -119.39784247, 49.68006338 ], [ -119.39886141, 49.67985934 ], [ -119.39990121, 49.67951594 ], [ -119.40095868, 49.67912518 ], [ -119.40197877, 49.67872619 ], [ -119.40302743, 49.67834459 ], [ -119.40404482, 49.67789166 ], [ -119.40509476, 49.677537 ], [ -119.40611167, 49.67707507 ], [ -119.40712049, 49.67673025 ], [ -119.4076832, 49.67692744 ], [ -119.40846821, 49.67701007 ], [ -119.40947554, 49.67697811 ], [ -119.41036749, 49.67698052 ], [ -119.41132931, 49.67690052 ], [ -119.4123611, 49.67664712 ], [ -119.41339297, 49.67630276 ], [ -119.41383005, 49.6761707 ], [ -119.41417477, 49.67604057 ], [ -119.41451194, 49.67578865 ], [ -119.41482187, 49.67545333 ], [ -119.41510455, 49.67503462 ], [ -119.41530553, 49.67464561 ], [ -119.41577968, 49.67423689 ], [ -119.41652702, 49.67380848 ], [ -119.41706844, 49.67351431 ], [ -119.4174964, 49.6732305 ], [ -119.41777023, 49.6731618 ], [ -119.41861046, 49.67305429 ], [ -119.41956135, 49.6730664 ], [ -119.42027174, 49.6729496 ], [ -119.42060537, 49.67272072 ], [ -119.42068713, 49.67244413 ], [ -119.42064783, 49.67221106 ], [ -119.42170198, 49.67216302 ], [ -119.4227478, 49.6720092 ], [ -119.42378528, 49.67174959 ], [ -119.42481574, 49.6712872 ], [ -119.42547233, 49.6709256 ], [ -119.4260141, 49.6705784 ], [ -119.42638974, 49.67032764 ], [ -119.42714003, 49.6703329 ], [ -119.42788912, 49.6702832 ], [ -119.42863696, 49.67023952 ], [ -119.42932713, 49.6700891 ], [ -119.43013106, 49.67002724 ], [ -119.43105578, 49.66991686 ], [ -119.43209899, 49.66983598 ], [ -119.43289873, 49.66972121 ], [ -119.43364287, 49.66957262 ], [ -119.43383313, 49.66949666 ], [ -119.43363691, 49.66889806 ], [ -119.43433763, 49.66858945 ], [ -119.43521432, 49.66828914 ], [ -119.43593352, 49.66835098 ], [ -119.4364673, 49.66830775 ], [ -119.43675827, 49.66818268 ], [ -119.43714885, 49.6680785 ], [ -119.43755853, 49.66795592 ], [ -119.4380732, 49.6679001 ], [ -119.43864296, 49.66793008 ], [ -119.43943993, 49.66800724 ], [ -119.44039631, 49.66806904 ], [ -119.4414103, 49.66802067 ], [ -119.44232891, 49.66797429 ], [ -119.44315214, 49.66792993 ], [ -119.4436561, 49.66793728 ], [ -119.44418833, 49.66792505 ], [ -119.4448184, 49.66783677 ], [ -119.44559123, 49.66764753 ], [ -119.44662861, 49.66732873 ], [ -119.44766235, 49.66693804 ], [ -119.44872333, 49.66653777 ], [ -119.4497432, 49.66614735 ], [ -119.45078805, 49.66582537 ], [ -119.45171343, 49.66554689 ], [ -119.45251883, 49.66539389 ], [ -119.45320868, 49.66520934 ], [ -119.45402231, 49.66506715 ], [ -119.45496648, 49.66482622 ], [ -119.45603946, 49.66457456 ], [ -119.45648963, 49.66427914 ], [ -119.45703451, 49.6639687 ], [ -119.45637505, 49.66353291 ], [ -119.45659771, 49.66327629 ], [ -119.45670304, 49.66316611 ], [ -119.45657251, 49.66271509 ], [ -119.45632596, 49.66228352 ], [ -119.45673511, 49.66218288 ], [ -119.45710073, 49.66201318 ], [ -119.45742286, 49.66177445 ], [ -119.45770089, 49.66151666 ], [ -119.45800616, 49.6612493 ], [ -119.45825651, 49.66099209 ], [ -119.45851933, 49.66070763 ], [ -119.45879532, 49.66031794 ], [ -119.45903152, 49.65987213 ], [ -119.45934448, 49.65942168 ], [ -119.45969477, 49.65900942 ], [ -119.45973699, 49.65874764 ], [ -119.45977832, 49.65846788 ], [ -119.45986343, 49.65823218 ], [ -119.45996193, 49.6579872 ], [ -119.46008811, 49.65774162 ], [ -119.46030803, 49.65743109 ], [ -119.46053496, 49.65716838 ], [ -119.46080819, 49.65690768 ], [ -119.46061214, 49.65686688 ], [ -119.45995444, 49.65673992 ], [ -119.45935811, 49.65663865 ], [ -119.4588231, 49.65656306 ], [ -119.45882209, 49.65626822 ], [ -119.45856571, 49.6559468 ], [ -119.45805395, 49.65559884 ], [ -119.45825484, 49.65491088 ], [ -119.45805523, 49.65424942 ], [ -119.45792062, 49.65396142 ], [ -119.45776386, 49.65369187 ], [ -119.45762343, 49.65344096 ], [ -119.45752151, 49.65319025 ], [ -119.45750467, 49.65294771 ], [ -119.45754827, 49.6527129 ], [ -119.45756191, 49.65243373 ], [ -119.45754924, 49.65218212 ], [ -119.45746851, 49.65168005 ], [ -119.45747104, 49.6514551 ], [ -119.45747809, 49.65132002 ], [ -119.45743153, 49.65106812 ], [ -119.45721972, 49.65080573 ], [ -119.45684184, 49.65048591 ], [ -119.456394, 49.6500916 ], [ -119.45599287, 49.64961533 ], [ -119.45604741, 49.64920037 ], [ -119.45604948, 49.64881349 ], [ -119.4559658, 49.6485274 ], [ -119.45602188, 49.64826532 ], [ -119.4560788, 49.64792827 ], [ -119.45606987, 49.64747567 ], [ -119.45599509, 49.64690751 ], [ -119.45600042, 49.64618772 ], [ -119.45599689, 49.64556708 ], [ -119.45597083, 49.64532474 ], [ -119.45591711, 49.64508299 ], [ -119.45577592, 49.64481611 ], [ -119.45559935, 49.64454998 ], [ -119.45535052, 49.64428537 ], [ -119.45520865, 49.64403551 ], [ -119.45510378, 49.64378685 ], [ -119.45506391, 49.6435448 ], [ -119.45497933, 49.64324073 ], [ -119.4549207, 49.64299309 ], [ -119.45493443, 49.64274591 ], [ -119.45497425, 49.64249718 ], [ -119.45509521, 49.64223972 ], [ -119.45520445, 49.64196353 ], [ -119.45524231, 49.64167586 ], [ -119.45523189, 49.6411933 ], [ -119.45548521, 49.64069114 ], [ -119.45600228, 49.6401694 ], [ -119.45542832, 49.63968281 ], [ -119.45508724, 49.63914429 ], [ -119.45497905, 49.63855385 ], [ -119.455047, 49.63825255 ], [ -119.45504607, 49.63795869 ], [ -119.45501822, 49.63768042 ], [ -119.45497608, 49.63739344 ], [ -119.45494777, 49.63710617 ], [ -119.4548664, 49.636865 ], [ -119.45499298, 49.63665841 ], [ -119.45524701, 49.63644612 ], [ -119.45599281, 49.63606645 ], [ -119.45660126, 49.63558774 ], [ -119.45695058, 49.6349756 ], [ -119.45706382, 49.63429051 ], [ -119.45707321, 49.63365159 ], [ -119.45706696, 49.63297703 ], [ -119.45740785, 49.63241204 ], [ -119.45774459, 49.63185613 ], [ -119.45807715, 49.63130931 ], [ -119.45893408, 49.63072436 ], [ -119.45941442, 49.63027035 ], [ -119.45991944, 49.62975684 ], [ -119.46051718, 49.62925135 ], [ -119.46121763, 49.62876866 ], [ -119.46122741, 49.62813873 ], [ -119.46098797, 49.62787595 ], [ -119.46084542, 49.6276121 ], [ -119.46079974, 49.62734719 ], [ -119.4608903, 49.62709837 ], [ -119.46103327, 49.62691242 ], [ -119.46122863, 49.62678932 ], [ -119.4611748, 49.62654557 ], [ -119.46114838, 49.62629625 ], [ -119.46119104, 49.62604345 ], [ -119.46120512, 49.62577327 ], [ -119.46123302, 49.6255028 ], [ -119.46127657, 49.62526798 ], [ -119.4613091, 49.62499741 ], [ -119.4612559, 49.62473566 ], [ -119.46107282, 49.62449166 ], [ -119.46079657, 49.62426165 ], [ -119.46051146, 49.62403881 ], [ -119.46031956, 49.623803 ], [ -119.46022086, 49.62355421 ], [ -119.46023078, 49.62329311 ], [ -119.46026006, 49.6230496 ], [ -119.46030869, 49.62282367 ], [ -119.46028852, 49.62269816 ], [ -119.460179, 49.6224486 ], [ -119.4600686, 49.62218106 ], [ -119.45998541, 49.62190396 ], [ -119.46011695, 49.62158331 ], [ -119.46018252, 49.62114411 ], [ -119.46018282, 49.62032546 ], [ -119.46018377, 49.61979468 ], [ -119.4601725, 49.61902127 ], [ -119.46018185, 49.61838236 ], [ -119.46017693, 49.61773475 ], [ -119.46088062, 49.61722801 ], [ -119.46155062, 49.61669398 ], [ -119.46211269, 49.61612527 ], [ -119.46231609, 49.61567415 ], [ -119.46234876, 49.61522365 ], [ -119.46248867, 49.61497778 ], [ -119.46259033, 49.61470574 ], [ -119.46269259, 49.61444567 ], [ -119.46279546, 49.6141976 ], [ -119.46297458, 49.61390591 ], [ -119.46307254, 49.61365194 ], [ -119.46312855, 49.61338987 ], [ -119.46318274, 49.61309185 ], [ -119.46325257, 49.61282947 ], [ -119.46336481, 49.61258419 ], [ -119.4635573, 49.61228322 ], [ -119.46372931, 49.61203367 ], [ -119.46385014, 49.61177621 ], [ -119.46391982, 49.61151084 ], [ -119.46400214, 49.61122122 ], [ -119.46415266, 49.61091215 ], [ -119.46422296, 49.61065876 ], [ -119.46434674, 49.61036826 ], [ -119.46453551, 49.61008537 ], [ -119.46476116, 49.60980168 ], [ -119.46501211, 49.60956243 ], [ -119.46519394, 49.60932466 ], [ -119.46536146, 49.6090782 ], [ -119.46557047, 49.60883086 ], [ -119.46580337, 49.60862998 ], [ -119.46607487, 49.60849325 ], [ -119.46675175, 49.60828191 ], [ -119.46742644, 49.60799664 ], [ -119.46809891, 49.60763745 ], [ -119.46849681, 49.60729312 ], [ -119.46869907, 49.60700392 ], [ -119.46885494, 49.60670972 ], [ -119.46902062, 49.60642732 ], [ -119.46914392, 49.60612781 ], [ -119.46926858, 49.60585528 ], [ -119.46933973, 49.60561986 ], [ -119.47008374, 49.60527712 ], [ -119.47072595, 49.6048376 ], [ -119.47114992, 49.60427979 ], [ -119.47134471, 49.6036609 ], [ -119.4714217, 49.60299355 ], [ -119.47151115, 49.60229895 ], [ -119.47159968, 49.60158637 ], [ -119.4717217, 49.60107998 ], [ -119.47180862, 49.6007003 ], [ -119.47180098, 49.60048855 ], [ -119.47175545, 49.60028761 ], [ -119.47174803, 49.60014084 ], [ -119.47177398, 49.59992438 ], [ -119.47183333, 49.59963824 ], [ -119.47174205, 49.59901947 ], [ -119.47163517, 49.59854796 ], [ -119.47151266, 49.59822372 ], [ -119.47182205, 49.59792524 ], [ -119.47203972, 49.59748578 ], [ -119.47216568, 49.59690535 ], [ -119.47216636, 49.59637157 ], [ -119.47217371, 49.59596959 ], [ -119.47221552, 49.59570181 ], [ -119.47228514, 49.59543644 ], [ -119.47238566, 49.59514342 ], [ -119.47251826, 49.59484672 ], [ -119.47304637, 49.59473847 ], [ -119.47341287, 49.59444477 ], [ -119.47361774, 49.59396559 ], [ -119.47382277, 49.59355039 ], [ -119.47401618, 49.59327038 ], [ -119.47414047, 49.59299184 ], [ -119.47419564, 49.59271479 ], [ -119.47429213, 49.59243384 ], [ -119.4744081, 49.5921125 ], [ -119.47456872, 49.59179221 ], [ -119.47479126, 49.59135864 ], [ -119.47498574, 49.5908267 ], [ -119.47507648, 49.59015906 ], [ -119.47515159, 49.58945576 ], [ -119.47524186, 49.58877913 ], [ -119.47532014, 49.58813874 ], [ -119.47539614, 49.58745341 ], [ -119.47486768, 49.58697594 ], [ -119.47458086, 49.58641232 ], [ -119.474652, 49.58581307 ], [ -119.47495975, 49.58521074 ], [ -119.47549347, 49.58466855 ], [ -119.4760225, 49.58412547 ], [ -119.47665905, 49.58361106 ], [ -119.47718259, 49.58308108 ], [ -119.47770799, 49.58255805 ], [ -119.4781228, 49.58200641 ], [ -119.47874097, 49.58152437 ], [ -119.47920015, 49.58099975 ], [ -119.47943478, 49.58047295 ], [ -119.47959534, 49.58006169 ], [ -119.47971565, 49.57982721 ], [ -119.47986133, 49.57972913 ], [ -119.47985631, 49.57963029 ], [ -119.47978782, 49.57937087 ], [ -119.47976215, 49.57913752 ], [ -119.47975962, 49.57899664 ], [ -119.47977203, 49.57878646 ], [ -119.47984127, 49.5785151 ], [ -119.47995106, 49.57822487 ], [ -119.48005904, 49.57789869 ], [ -119.48019693, 49.57761686 ], [ -119.48078631, 49.57723538 ], [ -119.48080878, 49.57695103 ], [ -119.48086769, 49.57665789 ], [ -119.48116927, 49.57605768 ], [ -119.48137579, 49.57576538 ], [ -119.48162969, 49.57555902 ], [ -119.48182682, 49.57532389 ], [ -119.48193359, 49.57500474 ], [ -119.48195998, 49.57464634 ], [ -119.48196888, 49.57436727 ], [ -119.48206347, 49.57405037 ], [ -119.48215989, 49.57376943 ], [ -119.48225766, 49.57351544 ], [ -119.48238157, 49.57320091 ], [ -119.48255722, 49.57287629 ], [ -119.48276067, 49.57264502 ], [ -119.48303096, 49.5722164 ], [ -119.48336806, 49.57159043 ], [ -119.48364003, 49.57049907 ], [ -119.48371635, 49.56982272 ], [ -119.48346391, 49.56930038 ], [ -119.48319866, 49.56888926 ], [ -119.48292064, 49.56858935 ], [ -119.48299031, 49.56832698 ], [ -119.48307244, 49.56803734 ], [ -119.48315314, 49.5678107 ], [ -119.48320299, 49.56761172 ], [ -119.48336149, 49.56746438 ], [ -119.48359559, 49.56717148 ], [ -119.48376244, 49.56691601 ], [ -119.48291888, 49.56679818 ], [ -119.48204694, 49.56663597 ], [ -119.4811938, 49.56635941 ], [ -119.48040606, 49.5659175 ], [ -119.48005584, 49.56646678 ], [ -119.47961473, 49.56686007 ], [ -119.47908271, 49.56709737 ], [ -119.4785709, 49.56715732 ], [ -119.4780298, 49.56724588 ], [ -119.47737154, 49.5674489 ], [ -119.4774282, 49.56802144 ], [ -119.47732219, 49.56856847 ], [ -119.47689935, 49.56914127 ], [ -119.47659176, 49.5697446 ], [ -119.47639884, 49.57036646 ], [ -119.47632197, 49.57103382 ], [ -119.47527662, 49.57099921 ], [ -119.47421939, 49.57103383 ], [ -119.47317517, 49.57111313 ], [ -119.47215687, 49.57103595 ], [ -119.47116448, 49.57080226 ], [ -119.47005048, 49.5712039 ], [ -119.46899609, 49.57132536 ], [ -119.4679512, 49.57139165 ], [ -119.46690504, 49.57146294 ], [ -119.46585955, 49.57145624 ], [ -119.46481074, 49.57144461 ], [ -119.46377553, 49.57127576 ], [ -119.46275256, 49.57104465 ], [ -119.46176996, 49.57066874 ], [ -119.46079862, 49.57014965 ], [ -119.45983855, 49.56948738 ], [ -119.45887334, 49.56896713 ], [ -119.45800956, 49.56856867 ], [ -119.45723174, 49.56838229 ], [ -119.45656524, 49.56820853 ], [ -119.4558893, 49.56809195 ], [ -119.4552285, 49.56784809 ], [ -119.45468927, 49.5674847 ], [ -119.45415851, 49.56701417 ], [ -119.4536271, 49.56653066 ], [ -119.45286284, 49.56612306 ], [ -119.45196005, 49.56574138 ], [ -119.45098424, 49.56540522 ], [ -119.44998703, 49.56500953 ], [ -119.44952299, 49.56485743 ], [ -119.4492288, 49.5647827 ], [ -119.44889926, 49.5647387 ], [ -119.44865315, 49.56467294 ], [ -119.44843137, 49.56460166 ], [ -119.44816122, 49.56445445 ], [ -119.4479591, 49.56428481 ], [ -119.44779822, 49.56407931 ], [ -119.44770754, 49.56383334 ], [ -119.44767415, 49.56356516 ], [ -119.44708006, 49.56357773 ], [ -119.44632822, 49.56345904 ], [ -119.44629649, 49.5635032 ], [ -119.44627322, 49.56353334 ], [ -119.44601139, 49.56378025 ], [ -119.44587683, 49.56385507 ], [ -119.44580954, 49.56389248 ], [ -119.44539203, 49.56411721 ], [ -119.44505829, 49.56435816 ], [ -119.44479409, 49.56460664 ], [ -119.44449053, 49.56489793 ], [ -119.44417381, 49.56511053 ], [ -119.44391409, 49.56526395 ], [ -119.4436975, 49.56535849 ], [ -119.44341364, 49.56549044 ], [ -119.44322335, 49.56555742 ], [ -119.44291753, 49.56564984 ], [ -119.44261353, 49.56571724 ], [ -119.4421936, 49.56577108 ], [ -119.4417854, 49.56584468 ], [ -119.44143532, 49.56594303 ], [ -119.44113361, 49.56608733 ], [ -119.44077473, 49.56628682 ], [ -119.44041925, 49.56646225 ], [ -119.43998742, 49.56667827 ], [ -119.43969196, 49.56685542 ], [ -119.43930292, 49.56709753 ], [ -119.43891252, 49.56731266 ], [ -119.43850116, 49.56747727 ], [ -119.43808401, 49.56761801 ], [ -119.43770605, 49.56771293 ], [ -119.43745519, 49.56779819 ], [ -119.43727121, 49.56786903 ], [ -119.43713202, 49.56794393 ], [ -119.43675542, 49.56815878 ], [ -119.43639087, 49.56833738 ], [ -119.43602361, 49.56846206 ], [ -119.43555613, 49.56870381 ], [ -119.43517673, 49.56904764 ], [ -119.43488538, 49.56949358 ], [ -119.4341757, 49.56996432 ], [ -119.4334235, 49.57041495 ], [ -119.43254008, 49.57082336 ], [ -119.43156794, 49.57120964 ], [ -119.43047978, 49.57151938 ], [ -119.4294178, 49.57173761 ], [ -119.42836508, 49.57189465 ], [ -119.42729313, 49.57212906 ], [ -119.42621889, 49.57241048 ], [ -119.42512719, 49.5728052 ], [ -119.42405497, 49.57309656 ], [ -119.42299269, 49.57321677 ], [ -119.42194037, 49.57316585 ], [ -119.42089768, 49.5733406 ], [ -119.41984965, 49.57350047 ], [ -119.41879626, 49.57364545 ], [ -119.4177036, 49.57392918 ], [ -119.41676024, 49.57412382 ], [ -119.41603549, 49.57438784 ], [ -119.41552936, 49.57472127 ], [ -119.41446029, 49.57501647 ], [ -119.41337874, 49.57524595 ], [ -119.41229809, 49.57540043 ], [ -119.41124522, 49.57555732 ], [ -119.41020945, 49.57568686 ], [ -119.40909128, 49.57601602 ], [ -119.40900098, 49.57671059 ], [ -119.40794908, 49.57679446 ], [ -119.40692672, 49.57672877 ], [ -119.40593391, 49.57651354 ], [ -119.40490517, 49.57613011 ], [ -119.40387061, 49.57622258 ], [ -119.40284797, 49.57615087 ], [ -119.40183726, 49.57591498 ], [ -119.40129641, 49.57648296 ], [ -119.40055419, 49.57695716 ], [ -119.39959274, 49.57728697 ], [ -119.39854038, 49.57745573 ], [ -119.39749557, 49.57740242 ], [ -119.39647617, 49.57717765 ], [ -119.39655284, 49.57648338 ], [ -119.39664331, 49.57578882 ], [ -119.39601761, 49.57553589 ], [ -119.39552493, 49.57517427 ], [ -119.39516529, 49.57470393 ], [ -119.39410339, 49.57495981 ], [ -119.39304207, 49.57522766 ], [ -119.39198133, 49.57550748 ], [ -119.39088825, 49.57588092 ], [ -119.38994117, 49.57603343 ], [ -119.38913655, 49.5759561 ], [ -119.38846813, 49.57570902 ], [ -119.3876687, 49.57554861 ], [ -119.3867371, 49.57564079 ], [ -119.38567962, 49.57592549 ], [ -119.38510489, 49.57633816 ], [ -119.38465753, 49.57681018 ], [ -119.38442562, 49.57744467 ], [ -119.38350156, 49.57753469 ], [ -119.38267054, 49.5777677 ], [ -119.38193257, 49.57814375 ], [ -119.38108214, 49.57851509 ], [ -119.38023079, 49.57889945 ], [ -119.37937853, 49.57929681 ], [ -119.37862969, 49.57973503 ], [ -119.3777563, 49.58023576 ], [ -119.37688637, 49.58071343 ], [ -119.37601991, 49.58116803 ], [ -119.3753861, 49.58166483 ], [ -119.37486659, 49.58220526 ], [ -119.37446128, 49.58278632 ], [ -119.37339131, 49.58269133 ], [ -119.37235932, 49.58252358 ], [ -119.37136531, 49.58228308 ], [ -119.37035937, 49.5820818 ], [ -119.36943688, 49.58207971 ], [ -119.36872393, 49.58230921 ], [ -119.3682205, 49.58277031 ], [ -119.36779926, 49.5833097 ], [ -119.36726942, 49.58379733 ], [ -119.36662798, 49.58426624 ], [ -119.36588215, 49.58477027 ], [ -119.36514, 49.58516029 ], [ -119.36450518, 49.58560806 ], [ -119.3638669, 49.5860799 ], [ -119.36322516, 49.58657579 ], [ -119.36246456, 49.58706211 ], [ -119.36183994, 49.58756264 ], [ -119.36143658, 49.58809264 ], [ -119.36113604, 49.58868251 ], [ -119.36095213, 49.58923602 ], [ -119.36066207, 49.58972472 ], [ -119.36049621, 49.59014291 ], [ -119.36020758, 49.59059759 ], [ -119.36001949, 49.59119216 ], [ -119.35982003, 49.59190191 ], [ -119.35962338, 49.59254264 ], [ -119.35944075, 49.59309111 ], [ -119.35915961, 49.59351065 ], [ -119.35911599, 49.59388138 ], [ -119.35896186, 49.59419238 ], [ -119.35891992, 49.59453408 ], [ -119.3585282, 49.5948929 ], [ -119.35801469, 49.59530919 ], [ -119.35725652, 49.5958494 ], [ -119.35626334, 49.59547081 ], [ -119.35526246, 49.59515535 ], [ -119.35424288, 49.5949622 ], [ -119.3532106, 49.59488824 ], [ -119.35214981, 49.59498878 ], [ -119.35107884, 49.59516548 ], [ -119.35009936, 49.59494249 ], [ -119.34906285, 49.59468466 ], [ -119.34898334, 49.59533399 ], [ -119.34791369, 49.59563458 ], [ -119.34684806, 49.59582711 ], [ -119.34735148, 49.59644762 ], [ -119.34762177, 49.59708084 ], [ -119.34755042, 49.59767601 ], [ -119.34714452, 49.59815803 ], [ -119.34652079, 49.59852352 ], [ -119.34549848, 49.59837034 ], [ -119.34448051, 49.59811509 ], [ -119.34386243, 49.59856641 ], [ -119.34345922, 49.59910535 ], [ -119.34327089, 49.59973187 ], [ -119.34376956, 49.60025353 ], [ -119.34415225, 49.60079352 ], [ -119.34324476, 49.60120772 ], [ -119.34249066, 49.6016458 ], [ -119.34275707, 49.60200624 ], [ -119.3428852, 49.60246543 ], [ -119.34287505, 49.60302338 ], [ -119.34385682, 49.60329136 ], [ -119.34378846, 49.60388647 ], [ -119.34382406, 49.60456444 ], [ -119.34403334, 49.60520791 ], [ -119.3444163, 49.60581686 ], [ -119.34478454, 49.60634316 ], [ -119.34504009, 49.60689272 ], [ -119.34571672, 49.60676206 ], [ -119.34656838, 49.6067208 ], [ -119.34759505, 49.60676894 ], [ -119.34782551, 49.60727603 ], [ -119.34836282, 49.60770292 ], [ -119.349207, 49.60804962 ], [ -119.35027663, 49.60841472 ], [ -119.3507168, 49.60893153 ], [ -119.35139332, 49.60937358 ], [ -119.35230621, 49.60974084 ], [ -119.35242659, 49.61045207 ], [ -119.35277758, 49.61112862 ], [ -119.35335919, 49.61177049 ], [ -119.3538217, 49.61227085 ], [ -119.35440176, 49.61272083 ], [ -119.35542904, 49.61316171 ], [ -119.35645535, 49.61367757 ], [ -119.35748888, 49.61415128 ], [ -119.35800446, 49.61447928 ], [ -119.35819489, 49.61461934 ], [ -119.35829481, 49.61469779 ], [ -119.35832578, 49.61476701 ], [ -119.35850072, 49.61494121 ], [ -119.35881991, 49.61521708 ], [ -119.35955481, 49.61564747 ], [ -119.35943712, 49.6162366 ], [ -119.3591015, 49.61674121 ], [ -119.35854797, 49.61716131 ], [ -119.35853946, 49.61784517 ], [ -119.35854347, 49.61850179 ], [ -119.35749356, 49.61883804 ], [ -119.35714437, 49.61934892 ], [ -119.35668489, 49.61980607 ], [ -119.35611034, 49.62020659 ], [ -119.35541586, 49.62054459 ], [ -119.35531613, 49.62115634 ], [ -119.35510298, 49.62168143 ], [ -119.35476584, 49.62206013 ], [ -119.3545184, 49.62232104 ], [ -119.35433018, 49.62253378 ], [ -119.35417069, 49.62276792 ], [ -119.35392906, 49.62302172 ], [ -119.35385211, 49.62314922 ], [ -119.35374837, 49.62329527 ], [ -119.35365862, 49.62344403 ], [ -119.35358326, 49.62360448 ], [ -119.35349764, 49.62380714 ], [ -119.35341672, 49.62407566 ], [ -119.35335423, 49.62459869 ], [ -119.35334564, 49.62528255 ], [ -119.35338474, 49.62580651 ], [ -119.35340653, 49.6261629 ], [ -119.35338892, 49.62634018 ], [ -119.35334921, 49.62650591 ], [ -119.35326536, 49.62668153 ], [ -119.35313265, 49.62689714 ], [ -119.35302759, 49.62701622 ], [ -119.3528819, 49.62715412 ], [ -119.35277773, 49.62729118 ], [ -119.35268737, 49.62742795 ], [ -119.35258276, 49.62755602 ], [ -119.35246906, 49.62768727 ], [ -119.35237395, 49.62782114 ], [ -119.35228447, 49.62797589 ], [ -119.35219455, 49.62812165 ], [ -119.352131, 49.6282399 ], [ -119.35202767, 49.62839492 ], [ -119.35191009, 49.62854124 ], [ -119.3517912, 49.62866061 ], [ -119.35164137, 49.6287766 ], [ -119.351474, 49.62887996 ], [ -119.35124011, 49.62900765 ], [ -119.35095721, 49.62917232 ], [ -119.35079551, 49.62926557 ], [ -119.35066192, 49.62936724 ], [ -119.35052165, 49.62952202 ], [ -119.35038766, 49.62971166 ], [ -119.35026502, 49.63004099 ], [ -119.34973364, 49.63022271 ], [ -119.34956508, 49.63052499 ], [ -119.34950081, 49.63098009 ], [ -119.34970005, 49.63153878 ], [ -119.35033791, 49.63197062 ], [ -119.35124662, 49.632306 ], [ -119.35228956, 49.63268062 ], [ -119.3524724, 49.63241902 ], [ -119.352714, 49.63225918 ], [ -119.35307353, 49.63211993 ], [ -119.35354212, 49.63194447 ], [ -119.35410967, 49.63165106 ], [ -119.35459405, 49.63135634 ], [ -119.3545599, 49.63150996 ], [ -119.35455257, 49.63164505 ], [ -119.35514451, 49.63166598 ], [ -119.35577566, 49.63179807 ], [ -119.35655999, 49.632011 ], [ -119.35748743, 49.63235094 ], [ -119.35840705, 49.63275201 ], [ -119.35921148, 49.63315741 ], [ -119.35977838, 49.63351968 ], [ -119.36035911, 49.63378571 ], [ -119.36094568, 49.63414057 ], [ -119.36176624, 49.63449666 ], [ -119.36258168, 49.6349378 ], [ -119.36339344, 49.63536602 ], [ -119.36396465, 49.63578415 ], [ -119.36453601, 49.63620527 ], [ -119.36510753, 49.63662939 ], [ -119.36590862, 49.63689988 ], [ -119.36682516, 49.63710704 ], [ -119.3678512, 49.63684316 ], [ -119.36784413, 49.63755398 ], [ -119.36784829, 49.63821059 ], [ -119.36785201, 49.63885821 ], [ -119.36784406, 49.63955106 ], [ -119.36796474, 49.64019828 ], [ -119.36820063, 49.64080918 ], [ -119.36854683, 49.64137782 ], [ -119.36877618, 49.64198085 ], [ -119.36889361, 49.64262414 ], [ -119.36946301, 49.64300231 ], [ -119.36980561, 49.64349607 ], [ -119.37004014, 49.64407799 ], [ -119.37028221, 49.64468875 ], [ -119.37063959, 49.64529614 ], [ -119.37099352, 49.6459276 ], [ -119.37122762, 49.64646855 ], [ -119.37146083, 49.64692756 ], [ -119.37157636, 49.64734099 ], [ -119.37192196, 49.64776871 ], [ -119.37215084, 49.64823381 ], [ -119.37249223, 49.6486696 ], [ -119.37261643, 49.64907087 ], [ -119.37285307, 49.64944184 ], [ -119.3730897, 49.64981282 ], [ -119.37343176, 49.65019862 ], [ -119.3737336, 49.65061223 ], [ -119.37396254, 49.65120426 ], [ -119.37407957, 49.65183756 ], [ -119.37407129, 49.65252142 ], [ -119.37411919, 49.65284129 ], [ -119.37411138, 49.65306035 ], [ -119.3740496, 49.65321454 ], [ -119.3740142, 49.65334121 ], [ -119.37396758, 49.65352208 ], [ -119.37393348, 49.65367571 ], [ -119.3738717, 49.65382991 ], [ -119.37378224, 49.65398467 ], [ -119.37370575, 49.65412118 ], [ -119.37357383, 49.65425782 ], [ -119.37341455, 49.65443301 ], [ -119.37322788, 49.65464674 ], [ -119.37309451, 49.65494334 ], [ -119.37299032, 49.65508042 ], [ -119.37289998, 49.6552172 ], [ -119.37283821, 49.6553714 ], [ -119.3727617, 49.6555079 ], [ -119.37269949, 49.65565312 ], [ -119.3726511, 49.65579804 ], [ -119.37256121, 49.65594382 ], [ -119.37245746, 49.65608988 ], [ -119.37222968, 49.65650336 ], [ -119.37204201, 49.65695 ], [ -119.37201475, 49.65752929 ], [ -119.37189918, 49.65816037 ], [ -119.37156561, 49.65870995 ], [ -119.37101406, 49.65917804 ], [ -119.37125865, 49.65983872 ], [ -119.37153332, 49.66023091 ], [ -119.37175522, 49.66051922 ], [ -119.37192432, 49.66070367 ], [ -119.37201604, 49.66087971 ], [ -119.37207278, 49.66109644 ], [ -119.37201371, 49.66149647 ], [ -119.37213029, 49.66212079 ], [ -119.37237268, 49.66270355 ], [ -119.37274191, 49.66301284 ], [ -119.37298643, 49.6632597 ], [ -119.37310628, 49.66344416 ], [ -119.37307219, 49.66359779 ], [ -119.3730649, 49.66373288 ], [ -119.37305936, 49.66390391 ], [ -119.37305251, 49.66404798 ], [ -119.37305864, 49.6641738 ], [ -119.37305222, 49.66432686 ], [ -119.37305922, 49.66447065 ], [ -119.37303853, 49.664615 ], [ -119.37301827, 49.66476835 ], [ -119.37299759, 49.66491271 ], [ -119.37299117, 49.66506577 ], [ -119.37298043, 49.66522492 ], [ -119.37295153, 49.66539043 ], [ -119.37293083, 49.66553479 ], [ -119.37289674, 49.66568841 ], [ -119.37287604, 49.66583277 ], [ -119.37288305, 49.66597656 ], [ -119.37286279, 49.6661299 ], [ -119.37284297, 49.66629224 ], [ -119.37282271, 49.66644558 ], [ -119.37277432, 49.66659051 ], [ -119.37269737, 49.66671802 ], [ -119.37262129, 49.66686352 ], [ -119.37255905, 49.66700872 ], [ -119.37248254, 49.66714523 ], [ -119.37240646, 49.66729072 ], [ -119.37231697, 49.66744549 ], [ -119.3722132, 49.66759155 ], [ -119.37213624, 49.66771907 ], [ -119.37204545, 49.66784687 ], [ -119.37196849, 49.66797439 ], [ -119.37187768, 49.66810219 ], [ -119.37181545, 49.6682474 ], [ -119.37172639, 49.66841115 ], [ -119.37166371, 49.66854737 ], [ -119.37162961, 49.668701 ], [ -119.37159507, 49.66884564 ], [ -119.3715748, 49.66899898 ], [ -119.3715678, 49.66914006 ], [ -119.37157451, 49.66927786 ], [ -119.37159637, 49.6697272 ], [ -119.37159082, 49.66989823 ], [ -119.37159826, 49.67005101 ], [ -119.37159185, 49.67020407 ], [ -119.37159927, 49.67035685 ], [ -119.37163397, 49.67050007 ], [ -119.3716497, 49.67082359 ], [ -119.37164329, 49.67097666 ], [ -119.37165073, 49.67112944 ], [ -119.37168585, 49.67128164 ], [ -119.37170713, 49.67143414 ], [ -119.37174226, 49.67158634 ], [ -119.37183934, 49.67187222 ], [ -119.37187446, 49.67202443 ], [ -119.37193642, 49.6721581 ], [ -119.37202693, 49.67230917 ], [ -119.37213072, 49.67244798 ], [ -119.3722482, 49.67258351 ], [ -119.37235169, 49.67271632 ], [ -119.37242749, 49.67284971 ], [ -119.37252079, 49.6730577 ], [ -119.37265751, 49.67330378 ], [ -119.37286451, 49.67356941 ], [ -119.3729957, 49.67370165 ], [ -119.37312646, 49.67382492 ], [ -119.37321164, 49.67396111 ], [ -119.3732785, 49.67410067 ], [ -119.37334045, 49.67423434 ], [ -119.37335185, 49.67440503 ], [ -119.37342448, 49.67463143 ], [ -119.37355378, 49.67497761 ], [ -119.37379118, 49.67542454 ], [ -119.3741503, 49.67606186 ], [ -119.37462827, 49.67657782 ], [ -119.37522501, 49.67706534 ], [ -119.37527906, 49.67722615 ], [ -119.37536622, 49.67737129 ] ] ] } }
]
}
